start=new Date('2022-07-06T00:00:00.000Z').valueOf();
sats=[{"ECCENTRICITY":"0.00019020","OBJECT_ID":"2022-025D","MEAN_ANOMALY":"312.4745","RCS_SIZE":"LARGE","OBJECT_TYPE":"PAYLOAD","EPHEMERIS_TYPE":"0","PERIAPSIS":"538.382","CLASSIFICATION_TYPE":"U","MEAN_MOTION_DDOT":"0.0000000000000","MEAN_MOTION":"15.08855590","REF_FRAME":"TEME","ARG_OF_PERICENTER":"43.6909","LAUNCH_DATE":"2022-03-09","COUNTRY_CODE":"US","APOAPSIS":"541.014","OBJECT_NAME":"STARLINK-3704","SITE":"AFETR","PERIOD":"95.437","DECAY_DATE":null,"TLE_LINE2":"2 51959  53.2155 298.5609 0001902  43.6909 312.4745 15.08855590  1300","REV_AT_EPOCH":"130","ELEMENT_SET_NO":"999","INCLINATION":"53.2155","TIME_SYSTEM":"UTC","TLE_LINE1":"1 51959U 22025D   22186.58334491 -.00020818  00000-0 -12931-2 0  9995","GP_ID":"207478276","EPOCH":"2022-07-05T14:00:01.000224","BSTAR":"-0.00129310000000","MEAN_MOTION_DOT":"-0.00020818","SEMIMAJOR_AXIS":"6917.833","NORAD_CAT_ID":"51959","FILE":"3508171","MEAN_ELEMENT_THEORY":"SGP4","RA_OF_ASC_NODE":"298.5609","CENTER_NAME":"EARTH"},{"FILE":"3508171","NORAD_CAT_ID":"51960","CENTER_NAME":"EARTH","RA_OF_ASC_NODE":"298.5535","MEAN_ELEMENT_THEORY":"SGP4","SEMIMAJOR_AXIS":"6917.868","MEAN_MOTION_DOT":"-0.00011734","BSTAR":"-0.00072027000000","EPOCH":"2022-07-05T14:00:01.000224","TLE_LINE1":"1 51960U 22025E   22186.58334491 -.00011734  00000-0 -72027-3 0  9997","TIME_SYSTEM":"UTC","GP_ID":"207478025","DECAY_DATE":null,"TLE_LINE2":"2 51960  53.2142 298.5535 0001760  43.4206 352.7466 15.08843961  1302","PERIOD":"95.437","INCLINATION":"53.2142","ELEMENT_SET_NO":"999","REV_AT_EPOCH":"130","LAUNCH_DATE":"2022-03-09","SITE":"AFETR","OBJECT_NAME":"STARLINK-3691","APOAPSIS":"540.951","COUNTRY_CODE":"US","MEAN_MOTION":"15.08843961","MEAN_MOTION_DDOT":"0.0000000000000","CLASSIFICATION_TYPE":"U","ARG_OF_PERICENTER":"43.4206","REF_FRAME":"TEME","PERIAPSIS":"538.516","EPHEMERIS_TYPE":"0","MEAN_ANOMALY":"352.7466","ECCENTRICITY":"0.00017600","OBJECT_ID":"2022-025E","OBJECT_TYPE":"PAYLOAD","RCS_SIZE":"LARGE"},{"SEMIMAJOR_AXIS":"6917.858","BSTAR":"-0.00034519000000","EPOCH":"2022-07-05T14:00:01.000224","MEAN_MOTION_DOT":"-0.00005779","FILE":"3508171","NORAD_CAT_ID":"51961","RA_OF_ASC_NODE":"298.5642","CENTER_NAME":"EARTH","MEAN_ELEMENT_THEORY":"SGP4","PERIOD":"95.437","TLE_LINE2":"2 51961  53.2169 298.5642 0002033  43.7684 272.3824 15.08847260  1309","DECAY_DATE":null,"INCLINATION":"53.2169","REV_AT_EPOCH":"130","ELEMENT_SET_NO":"999","TLE_LINE1":"1 51961U 22025F   22186.58334491 -.00005779  00000-0 -34519-3 0  9994","TIME_SYSTEM":"UTC","GP_ID":"207478777","MEAN_MOTION":"15.08847260","CLASSIFICATION_TYPE":"U","MEAN_MOTION_DDOT":"0.0000000000000","ARG_OF_PERICENTER":"43.7684","REF_FRAME":"TEME","LAUNCH_DATE":"2022-03-09","OBJECT_NAME":"STARLINK-3689","APOAPSIS":"541.130","SITE":"AFETR","COUNTRY_CODE":"US","MEAN_ANOMALY":"272.3824","ECCENTRICITY":"0.00020330","OBJECT_ID":"2022-025F","OBJECT_TYPE":"PAYLOAD","RCS_SIZE":"LARGE","EPHEMERIS_TYPE":"0","PERIAPSIS":"538.317"},{"MEAN_MOTION_DOT":"-0.00064388","BSTAR":"-0.00406100000000","EPOCH":"2022-07-05T22:00:00.999936","SEMIMAJOR_AXIS":"6917.801","CENTER_NAME":"EARTH","RA_OF_ASC_NODE":"297.0555","MEAN_ELEMENT_THEORY":"SGP4","NORAD_CAT_ID":"51962","FILE":"3508274","ELEMENT_SET_NO":"999","REV_AT_EPOCH":"1960","INCLINATION":"53.2132","TLE_LINE2":"2 51962  53.2132 297.0555 0001753  42.2803  40.2641 15.08865875 19605","DECAY_DATE":null,"PERIOD":"95.436","GP_ID":"207482836","TLE_LINE1":"1 51962U 22025G   22186.91667824 -.00064388  00000-0 -40610-2 0  9990","TIME_SYSTEM":"UTC","ARG_OF_PERICENTER":"42.2803","REF_FRAME":"TEME","MEAN_MOTION_DDOT":"0.0000000000000","CLASSIFICATION_TYPE":"U","MEAN_MOTION":"15.08865875","COUNTRY_CODE":"US","SITE":"AFETR","APOAPSIS":"540.879","OBJECT_NAME":"STARLINK-3697","LAUNCH_DATE":"2022-03-09","RCS_SIZE":"LARGE","OBJECT_TYPE":"PAYLOAD","OBJECT_ID":"2022-025G","ECCENTRICITY":"0.00017530","MEAN_ANOMALY":"40.2641","PERIAPSIS":"538.454","EPHEMERIS_TYPE":"0"},{"TLE_LINE1":"1 51963U 22025H   22186.58334491 -.00034521  00000-0 -21601-2 0  9990","TIME_SYSTEM":"UTC","GP_ID":"207477776","TLE_LINE2":"2 51963  53.2175 298.5661 0002035  41.9578 294.2291 15.08859137  1300","DECAY_DATE":null,"PERIOD":"95.436","ELEMENT_SET_NO":"999","REV_AT_EPOCH":"130","INCLINATION":"53.2175","NORAD_CAT_ID":"51963","FILE":"3508171","CENTER_NAME":"EARTH","RA_OF_ASC_NODE":"298.5661","MEAN_ELEMENT_THEORY":"SGP4","MEAN_MOTION_DOT":"-0.00034521","EPOCH":"2022-07-05T14:00:01.000224","BSTAR":"-0.00216010000000","SEMIMAJOR_AXIS":"6917.822","PERIAPSIS":"538.279","EPHEMERIS_TYPE":"0","ECCENTRICITY":"0.00020350","OBJECT_ID":"2022-025H","MEAN_ANOMALY":"294.2291","RCS_SIZE":"LARGE","OBJECT_TYPE":"PAYLOAD","LAUNCH_DATE":"2022-03-09","COUNTRY_CODE":"US","SITE":"AFETR","APOAPSIS":"541.095","OBJECT_NAME":"STARLINK-3675","MEAN_MOTION_DDOT":"0.0000000000000","CLASSIFICATION_TYPE":"U","MEAN_MOTION":"15.08859137","ARG_OF_PERICENTER":"41.9578","REF_FRAME":"TEME"},{"SEMIMAJOR_AXIS":"6917.808","MEAN_MOTION_DOT":"-0.00027072","BSTAR":"-0.00168810000000","EPOCH":"2022-07-05T14:00:01.000224","FILE":"3508171","NORAD_CAT_ID":"51964","RA_OF_ASC_NODE":"298.5455","CENTER_NAME":"EARTH","MEAN_ELEMENT_THEORY":"SGP4","TLE_LINE2":"2 51964  53.2158 298.5455 0001815  44.0926  72.0423 15.08863744  1307","DECAY_DATE":null,"PERIOD":"95.436","INCLINATION":"53.2158","ELEMENT_SET_NO":"999","REV_AT_EPOCH":"130","TIME_SYSTEM":"UTC","TLE_LINE1":"1 51964U 22025J   22186.58334491 -.00027072  00000-0 -16881-2 0  9998","GP_ID":"207478526","MEAN_MOTION":"15.08863744","MEAN_MOTION_DDOT":"0.0000000000000","CLASSIFICATION_TYPE":"U","ARG_OF_PERICENTER":"44.0926","REF_FRAME":"TEME","LAUNCH_DATE":"2022-03-09","SITE":"AFETR","APOAPSIS":"540.928","OBJECT_NAME":"STARLINK-3690","COUNTRY_CODE":"US","MEAN_ANOMALY":"72.0423","ECCENTRICITY":"0.00018150","OBJECT_ID":"2022-025J","OBJECT_TYPE":"PAYLOAD","RCS_SIZE":"LARGE","PERIAPSIS":"538.417","EPHEMERIS_TYPE":"0"},{"NORAD_CAT_ID":"51965","FILE":"3508171","RA_OF_ASC_NODE":"298.5537","CENTER_NAME":"EARTH","MEAN_ELEMENT_THEORY":"SGP4","EPOCH":"2022-07-05T14:00:01.000224","BSTAR":"-0.00076519000000","MEAN_MOTION_DOT":"-0.00012443","SEMIMAJOR_AXIS":"6917.903","TLE_LINE1":"1 51965U 22025K   22186.58334491 -.00012443  00000-0 -76519-3 0  9990","TIME_SYSTEM":"UTC","GP_ID":"207479278","PERIOD":"95.438","TLE_LINE2":"2 51965  53.2133 298.5537 0001726  53.3546   2.7799 15.08832703  1301","DECAY_DATE":null,"REV_AT_EPOCH":"130","ELEMENT_SET_NO":"999","INCLINATION":"53.2133","LAUNCH_DATE":"2022-03-09","COUNTRY_CODE":"US","APOAPSIS":"540.962","OBJECT_NAME":"STARLINK-3696","SITE":"AFETR","CLASSIFICATION_TYPE":"U","MEAN_MOTION_DDOT":"0.0000000000000","MEAN_MOTION":"15.08832703","REF_FRAME":"TEME","ARG_OF_PERICENTER":"53.3546","EPHEMERIS_TYPE":"0","PERIAPSIS":"538.574","ECCENTRICITY":"0.00017260","OBJECT_ID":"2022-025K","MEAN_ANOMALY":"2.7799","RCS_SIZE":"MEDIUM","OBJECT_TYPE":"PAYLOAD"},{"OBJECT_TYPE":"PAYLOAD","RCS_SIZE":"LARGE","MEAN_ANOMALY":"114.5905","OBJECT_ID":"2022-025L","ECCENTRICITY":"0.00015940","PERIAPSIS":"538.615","EPHEMERIS_TYPE":"0","ARG_OF_PERICENTER":"53.1387","REF_FRAME":"TEME","MEAN_MOTION":"15.08848927","MEAN_MOTION_DDOT":"0.0000000000000","CLASSIFICATION_TYPE":"U","SITE":"AFETR","OBJECT_NAME":"STARLINK-3699","APOAPSIS":"540.821","COUNTRY_CODE":"US","LAUNCH_DATE":"2022-03-09","INCLINATION":"53.2153","ELEMENT_SET_NO":"999","REV_AT_EPOCH":"1958","TLE_LINE2":"2 51966  53.2153 297.0469 0001594  53.1387 114.5905 15.08848927 19581","DECAY_DATE":null,"PERIOD":"95.437","GP_ID":"207482849","TLE_LINE1":"1 51966U 22025L   22186.91667824 -.00022026  00000-0 -13697-2 0  9992","TIME_SYSTEM":"UTC","SEMIMAJOR_AXIS":"6917.853","MEAN_MOTION_DOT":"-0.00022026","BSTAR":"-0.00136970000000","EPOCH":"2022-07-05T22:00:00.999936","MEAN_ELEMENT_THEORY":"SGP4","RA_OF_ASC_NODE":"297.0469","CENTER_NAME":"EARTH","FILE":"3508274","NORAD_CAT_ID":"51966"},{"ECCENTRICITY":"0.00058960","OBJECT_ID":"2022-025M","MEAN_ANOMALY":"276.4813","RCS_SIZE":"LARGE","OBJECT_TYPE":"PAYLOAD","EPHEMERIS_TYPE":"0","PERIAPSIS":"410.549","CLASSIFICATION_TYPE":"U","MEAN_MOTION_DDOT":"0.0000000000000","MEAN_MOTION":"15.50744294","REF_FRAME":"TEME","ARG_OF_PERICENTER":"72.5384","LAUNCH_DATE":"2022-03-09","COUNTRY_CODE":"US","OBJECT_NAME":"STARLINK-3695","APOAPSIS":"418.559","SITE":"AFETR","PERIOD":"92.859","TLE_LINE2":"2 51967  53.2110 286.6959 0005896  72.5384 276.4813 15.50744294  1300","DECAY_DATE":null,"REV_AT_EPOCH":"130","ELEMENT_SET_NO":"999","INCLINATION":"53.2110","TLE_LINE1":"1 51967U 22025M   22186.58334491 -.00001886  00000-0 -24349-4 0  9996","TIME_SYSTEM":"UTC","GP_ID":"207478277","EPOCH":"2022-07-05T14:00:01.000224","BSTAR":"-0.00002434900000","MEAN_MOTION_DOT":"-0.00001886","SEMIMAJOR_AXIS":"6792.689","NORAD_CAT_ID":"51967","FILE":"3508171","CENTER_NAME":"EARTH","RA_OF_ASC_NODE":"286.6959","MEAN_ELEMENT_THEORY":"SGP4"},{"MEAN_ANOMALY":"121.6577","ECCENTRICITY":"0.00015930","OBJECT_ID":"2022-025N","OBJECT_TYPE":"PAYLOAD","RCS_SIZE":"LARGE","PERIAPSIS":"538.641","EPHEMERIS_TYPE":"0","MEAN_MOTION":"15.08840617","MEAN_MOTION_DDOT":"0.0000000000000","CLASSIFICATION_TYPE":"U","REF_FRAME":"TEME","ARG_OF_PERICENTER":"54.4813","LAUNCH_DATE":"2022-03-09","SITE":"AFETR","OBJECT_NAME":"STARLINK-3681","APOAPSIS":"540.846","COUNTRY_CODE":"US","TLE_LINE2":"2 51968  53.2162 298.5438 0001593  54.4813 121.6577 15.08840617  1305","DECAY_DATE":null,"PERIOD":"95.438","INCLINATION":"53.2162","ELEMENT_SET_NO":"999","REV_AT_EPOCH":"130","TIME_SYSTEM":"UTC","TLE_LINE1":"1 51968U 22025N   22186.58334491 -.00009368  00000-0 -57126-3 0  9998","GP_ID":"207478026","SEMIMAJOR_AXIS":"6917.879","MEAN_MOTION_DOT":"-0.00009368","BSTAR":"-0.00057126000000","EPOCH":"2022-07-05T14:00:01.000224","FILE":"3508171","NORAD_CAT_ID":"51968","CENTER_NAME":"EARTH","RA_OF_ASC_NODE":"298.5438","MEAN_ELEMENT_THEORY":"SGP4"}];
